NORAD_CAT_ID,OBJECT_NAME,OBJECT_TYPE,EPOCH,MEAN_MOTION,ECCENTRICITY,INCLINATION,RA_OF_ASC_NODE,ARG_OF_PERICENTER,MEAN_ANOMALY,BSTAR,MEAN_MOTION_DOT,MEAN_MOTION_DDOT,TLE_LINE0,TLE_LINE1,TLE_LINE2,SEMIMAJOR_AXIS,PERIOD,APOGEE,PERIGEE,DECAYED
53592.0,STARLINK-4672,PAYLOAD,2023-06-04 19:01:05,15.08846396,0.0001194,53.2162,93.3769,74.8151,285.2973,0.0002013,2.918e-05,0.0,0 STARLINK-4672,1 53592U 22104E   23155.79242956  .00002918  00000-0  20130-3 0  9992,2 53592  53.2162  93.3769 0001194  74.8151 285.2973 15.08846396 42612,6917.861,95.437,540.552,538.9,0.0
53592.0,STARLINK-4672,PAYLOAD,2023-06-05 12:30:20,15.08841328,0.000105,53.2161,90.105,80.9789,279.1322,4.1951e-05,3.8e-06,0.0,0 STARLINK-4672,1 53592U 22104E   23156.52106987  .00000380  00000-0  41951-4 0  9993,2 53592  53.2161  90.1050 0001050  80.9789 279.1322 15.08841328 43740,6917.876,95.437,540.468,539.015,0.0
53592.0,STARLINK-4672,PAYLOAD,2023-06-06 04:24:11,15.08843546,0.000132,53.2162,87.1297,80.3635,279.7506,3.7893e-05,3.15e-06,0.0,0 STARLINK-4672,1 53592U 22104E   23157.18346998  .00000315  00000-0  37893-4 0  9992,2 53592  53.2162  87.1297 0001320  80.3635 279.7506 15.08843546 43849,6917.87,95.437,540.648,538.821,0.0
53592.0,STARLINK-4672,PAYLOAD,2023-06-06 18:42:40,15.08836144,0.0001287,53.2168,84.4544,88.0846,272.0293,2.0085e-05,3.2e-07,0.0,0 STARLINK-4672,1 53592U 22104E   23157.77963537  .00000032  00000-0  20085-4 0  9992,2 53592  53.2168  84.4544 0001287  88.0846 272.0293 15.08836144 42913,6917.892,95.438,540.648,538.867,0.0
53592.0,STARLINK-4672,PAYLOAD,2023-06-06 20:18:03,15.08836361,0.0001221,53.2163,84.1569,87.6659,272.4473,9.7339e-06,-1.33e-06,0.0,0 STARLINK-4672,1 53592U 22104E   23157.84587533 -.00000133  00000-0  97339-5 0  9998,2 53592  53.2163  84.1569 0001221  87.6659 272.4473 15.08836361 43946,6917.892,95.438,540.601,538.912,0.0
53592.0,STARLINK-4672,PAYLOAD,2023-06-07 04:14:59,15.08841727,0.0001245,53.2158,82.6691,88.7071,271.4064,8.8649e-05,1.123e-05,0.0,0 STARLINK-4672,1 53592U 22104E   23158.17707317  .00001123  00000-0  88649-4 0  9991,2 53592  53.2158  82.6691 0001245  88.7071 271.4064 15.08841727 43997,6917.875,95.437,540.601,538.879,0.0
53592.0,STARLINK-4672,PAYLOAD,2023-06-07 18:33:27,15.08834393,0.0001317,53.2161,79.9935,88.3096,271.8047,8.7464e-05,1.104e-05,0.0,0 STARLINK-4672,1 53592U 22104E   23158.77323990  .00001104  00000-0  87464-4 0  9991,2 53592  53.2161  79.9935 0001317  88.3096 271.8047 15.08834393 44081,6917.898,95.438,540.674,538.851,0.0
53592.0,STARLINK-4672,PAYLOAD,2023-06-08 00:55:00,15.0883627,0.0001269,53.2161,78.8042,90.9553,269.1584,9.8351e-05,1.278e-05,0.0,0 STARLINK-4672,1 53592U 22104E   23159.03819983  .00001278  00000-0  98351-4 0  9992,2 53592  53.2161  78.8042 0001269  90.9553 269.1584 15.08836270 43105,6917.892,95.438,540.635,538.879,0.0
53592.0,STARLINK-4672,PAYLOAD,2023-06-08 23:10:23,15.08851781,0.0001278,53.2163,74.6412,89.881,270.2328,0.0002582,3.825e-05,0.0,0 STARLINK-4672,1 53592U 22104E   23159.96555234  .00003825  00000-0  25820-3 0  9990,2 53592  53.2163  74.6412 0001278  89.8810 270.2328 15.08851781 43243,6917.844,95.437,540.593,538.825,0.0
53592.0,STARLINK-4672,PAYLOAD,2023-06-09 11:53:29,15.08836874,0.0001387,53.2165,72.2629,89.4054,270.7097,5.6953e-05,6.19e-06,0.0,0 STARLINK-4672,1 53592U 22104E   23160.49547951  .00000619  00000-0  56953-4 0  9997,2 53592  53.2165  72.2629 0001387  89.4054 270.7097 15.08836874 44342,6917.89,95.438,540.714,538.795,0.0
53592.0,STARLINK-4672,PAYLOAD,2023-06-10 03:47:20,15.08846128,0.0001087,53.2164,69.2885,94.8759,265.2358,0.00016165,2.286e-05,0.0,0 STARLINK-4672,1 53592U 22104E   23161.15787450  .00002286  00000-0  16165-3 0  9993,2 53592  53.2164  69.2885 0001087  94.8759 265.2358 15.08846128 43420,6917.862,95.437,540.479,538.975,0.0
53592.0,STARLINK-4672,PAYLOAD,2023-06-10 18:05:48,15.08840944,0.0001022,53.2159,66.6111,103.2347,256.8759,1.1746e-05,-1.01e-06,0.0,0 STARLINK-4672,1 53592U 22104E   23161.75403546 -.00000101  00000-0  11746-4 0  9996,2 53592  53.2159  66.6111 0001022 103.2347 256.8759 15.08840944 43515,6917.878,95.437,540.45,539.035,0.0
53592.0,STARLINK-4672,PAYLOAD,2023-06-11 09:59:39,15.0884316,8.1e-05,53.2151,63.6386,88.8159,271.2926,8.0664e-06,-1.59e-06,0.0,0 STARLINK-4672,1 53592U 22104E   23162.41643458 -.00000159  00000-0  80664-5 0  9997,2 53592  53.2151  63.6386 0000810  88.8159 271.2926 15.08843160 44635,6917.871,95.437,540.296,539.175,0.0
53592.0,STARLINK-4672,PAYLOAD,2023-06-11 17:56:36,15.08836441,8.39e-05,53.2153,62.1518,90.735,269.3738,0.00010474,1.379e-05,0.0,0 STARLINK-4672,1 53592U 22104E   23162.74763919  .00001379  00000-0  10474-3 0  9992,2 53592  53.2153  62.1518 0000839  90.7350 269.3738 15.08836441 44682,6917.891,95.438,540.337,539.176,0.0
53592.0,STARLINK-4672,PAYLOAD,2023-06-12 00:18:08,15.08844548,9.29e-05,53.2162,60.9624,88.9459,271.1639,0.00020055,2.906e-05,0.0,0 STARLINK-4672,1 53592U 22104E   23163.01259531  .00002906  00000-0  20055-3 0  9996,2 53592  53.2162  60.9624 0000929  88.9459 271.1639 15.08844548 43705,6917.866,95.437,540.374,539.089,0.0
53592.0,STARLINK-4672,PAYLOAD,2023-06-12 19:22:46,15.08836253,8.84e-05,53.2168,57.3949,86.5701,273.5392,7.9521e-06,-1.61e-06,0.0,0 STARLINK-4672,1 53592U 22104E   23163.80748026 -.00000161  00000-0  79521-5 0  9991,2 53592  53.2168  57.3949 0000884  86.5701 273.5392 15.08836253 43824,6917.892,95.438,540.368,539.145,0.0
53592.0,STARLINK-4672,PAYLOAD,2023-06-13 00:08:55,15.08836133,8.48e-05,53.2167,56.5028,89.7052,270.4037,4.874e-06,-2.1e-06,0.0,0 STARLINK-4672,1 53592U 22104E   23164.00620053 -.00000210  00000-0  48740-5 0  9997,2 53592  53.2167  56.5028 0000848  89.7052 270.4037 15.08836133 44871,6917.892,95.438,540.344,539.171,0.0
53592.0,STARLINK-4672,PAYLOAD,2023-06-13 19:13:33,15.08837924,9.14e-05,53.2169,52.9342,86.3581,273.7516,7.1038e-05,8.43e-06,0.0,0 STARLINK-4672,1 53592U 22104E   23164.80108107  .00000843  00000-0  71038-4 0  9992,2 53592  53.2169  52.9342 0000914  86.3581 273.7516 15.08837924 44996,6917.887,95.438,540.384,539.119,0.0
53592.0,STARLINK-4672,PAYLOAD,2023-06-14 01:35:05,15.08844013,9.54e-05,53.2172,51.7442,83.6784,276.4317,0.00010964,1.458e-05,0.0,0 STARLINK-4672,1 53592U 22104E   23165.06603831  .00001458  00000-0  10964-3 0  9998,2 53592  53.2172  51.7442 0000954  83.6784 276.4317 15.08844013 44016,6917.868,95.437,540.393,539.073,0.0
53592.0,STARLINK-4672,PAYLOAD,2023-06-14 15:53:34,15.08838869,0.0001019,53.2165,49.0685,93.9826,266.1282,9.187e-05,1.175e-05,0.0,0 STARLINK-4672,1 53592U 22104E   23165.66220177  .00001175  00000-0  91870-4 0  9994,2 53592  53.2165  49.0685 0001019  93.9826 266.1282 15.08838869 44100,6917.884,95.438,540.454,539.044,0.0
53592.0,STARLINK-4672,PAYLOAD,2023-06-15 01:25:53,15.08840674,0.000103,53.2166,47.2845,87.0147,273.0963,0.00010415,1.37e-05,0.0,0 STARLINK-4672,1 53592U 22104E   23166.05964158  .00001370  00000-0  10415-3 0  9994,2 53592  53.2166  47.2845 0001030  87.0147 273.0963 15.08840674 45181,6917.878,95.438,540.456,539.031,0.0
53592.0,STARLINK-4672,PAYLOAD,2023-06-15 15:44:21,15.08842484,0.0001127,53.2165,44.6092,74.6069,285.5047,6.5827e-05,7.6e-06,0.0,0 STARLINK-4672,1 53592U 22104E   23166.65580207  .00000760  00000-0  65827-4 0  9999,2 53592  53.2165  44.6092 0001127  74.6069 285.5047 15.08842484 45279,6917.873,95.437,540.517,538.958,0.0
53592.0,STARLINK-4672,PAYLOAD,2023-06-15 22:05:53,15.08847061,0.0001001,53.2167,43.4187,90.428,269.6827,9.3968e-05,1.208e-05,0.0,0 STARLINK-4672,1 53592U 22104E   23166.92075859  .00001208  00000-0  93968-4 0  9996,2 53592  53.2167  43.4187 0001001  90.4280 269.6827 15.08847061 44291,6917.859,95.437,540.416,539.031,0.0
53592.0,STARLINK-4672,PAYLOAD,2023-06-16 09:13:35,15.08839347,0.0001002,53.2161,41.3363,97.8422,262.2684,0.00025536,3.779e-05,0.0,0 STARLINK-4672,1 53592U 22104E   23167.38444000  .00003779  00000-0  25536-3 0  9995,2 53592  53.2161  41.3363 0001002  97.8422 262.2684 15.08839347 45387,6917.882,95.438,540.441,539.054,0.0
53592.0,STARLINK-4672,PAYLOAD,2023-06-16 15:35:07,15.08847229,0.0001044,53.2157,40.1467,94.6304,265.4808,0.00016576,2.352e-05,0.0,0 STARLINK-4672,1 53592U 22104E   23167.64939757  .00002352  00000-0  16576-3 0  9992,2 53592  53.2157  40.1467 0001044  94.6304 265.4808 15.08847229 45420,6917.858,95.437,540.446,539.001,0.0
53592.0,STARLINK-4672,PAYLOAD,2023-06-17 01:07:26,15.08856176,0.0001102,53.2164,38.3633,86.7838,273.3281,0.00026682,3.963e-05,0.0,0 STARLINK-4672,1 53592U 22104E   23168.04683136  .00003963  00000-0  26682-3 0  9992,2 53592  53.2164  38.3633 0001102  86.7838 273.3281 15.08856176 44468,6917.831,95.437,540.458,538.934,0.0
53592.0,STARLINK-4672,PAYLOAD,2023-06-17 15:25:55,15.08828242,9.19e-05,53.2156,35.6871,89.7322,270.3776,-0.00013675,-2.463e-05,0.0,0 STARLINK-4672,1 53592U 22104E   23168.64300716 -.00002463  00000-0 -13675-3 0  9992,2 53592  53.2156  35.6871 0000919  89.7322 270.3776 15.08828242 44558,6917.916,95.438,540.417,539.146,0.0
53592.0,STARLINK-4672,PAYLOAD,2023-06-18 00:58:15,15.08825789,0.0001002,53.2158,33.9026,90.9529,269.1578,-0.0001414,-2.536e-05,0.0,0 STARLINK-4672,1 53592U 22104E   23169.04045159 -.00002536  00000-0 -14140-3 0  9993,2 53592  53.2158  33.9026 0001002  90.9529 269.1578 15.08825789 45639,6917.924,95.438,540.482,539.096,0.0
53592.0,STARLINK-4672,PAYLOAD,2023-06-18 23:13:38,15.08845714,0.0001002,53.2175,29.7388,90.1771,269.9336,0.00015012,2.103e-05,0.0,0 STARLINK-4672,1 53592U 22104E   23169.96780502  .00002103  00000-0  15012-3 0  9999,2 53592  53.2175  29.7388 0001002  90.1771 269.9336 15.08845714 44755,6917.863,95.437,540.421,539.035,0.0
53592.0,STARLINK-4672,PAYLOAD,2023-06-19 07:10:34,15.08846683,9.56e-05,53.2171,28.2526,91.9625,268.1476,0.00016912,2.405e-05,0.0,0 STARLINK-4672,1 53592U 22104E   23170.29900481  .00002405  00000-0  16912-3 0  9992,2 53592  53.2171  28.2526 0000956  91.9625 268.1476 15.08846683 45824,6917.86,95.437,540.386,539.064,0.0
